STARLINK-30069          
1 56834C 23079M   26092.20395833  .00002054  00000+0  74340-4 0   925
2 56834  43.0024 330.8588 0001881 269.0430 113.0360 15.27593706    18
STARLINK-30144          
1 56835C 23079N   26092.22687500  .00117770  00000+0  40232-2 0   926
2 56835  42.9961 330.7078 0004890 248.1475 265.2715 15.29413868    16
STARLINK-30142          
1 56836C 23079P   26092.16298611  .00062683  00000+0  22701-2 0   924
2 56836  43.0006 331.2427 0001431 277.7065 175.1086 15.27551636    18
STARLINK-30133          
1 56837C 23079Q   26092.26784722 -.00071077  00000+0 -26398-2 0   924
2 56837  42.9998 333.3465 0001549 270.5700 334.9738 15.26789442    15
STARLINK-30123          
1 56838C 23079R   26092.28034722  .00023480  00000+0  85069-3 0   929
2 56838  43.0007 260.7104 0001450 267.7711 106.9180 15.27557777    16
STARLINK-30076          
1 56839C 23079S   26092.23034722  .00040344  00000+0  14992-2 0   929
2 56839  43.0039 334.0674 0001765 274.2036 271.2797 15.26715327    17
STARLINK-30073          
1 56840C 23079T   26092.15604167  .00054805  00000+0  19845-2 0   927
2 56840  43.0022 159.8461 0001380 261.5201  57.4634 15.27560510    11
STARLINK-30078          
1 56841C 23079U   26092.25951389 -.00017397  00000+0 -63013-3 0   924
2 56841  43.0025 286.2571 0001985 278.6678  62.3070 15.27585656    17
STARLINK-30135          
1 56842C 23079V   26092.18659722  .00058579  00000+0  21221-2 0   922
2 56842  43.0012 334.4380 0001384 275.5069 303.0644 15.27544014    16
STARLINK-30137          
1 56843C 23079W   26092.27618056  .00019994  00000+0  72403-3 0   925
2 56843  43.0035 333.6088 0001496 273.7166 212.4823 15.27575386    18
STARLINK-30136          
1 56844C 23079X   26092.26923611  .00023081  00000+0  83605-3 0   929
2 56844  43.0039 333.8285 0001611 274.6267  95.5371 15.27565348    10
STARLINK-6206           
1 56876C 23083A   26092.21437500  .00526640  00000+0  20347-1 0   922
2 56876  42.9991 312.3961 0001696 270.5919 230.3456 15.25187373    14
STARLINK-6209           
1 56877C 23083B   26092.19215278 -.00015562  00000+0 -57812-3 0   923
2 56877  43.0001 312.0761 0001698 268.8182 297.8541 15.26753560    19
STARLINK-6182           
1 56878C 23083C   26092.18937500  .00550560  00000+0  20934-1 0   925
2 56878  42.9991 312.4239 0001545 261.2453 149.9240 15.25703979    10
STARLINK-5707           
1 56879C 23083D   26092.16993056  .00604120  00000+0  23697-1 0   923
2 56879  42.9993 312.7930 0001570 262.5868 291.2756 15.24645103    12
STARLINK-6177           
1 56880C 23083E   26092.21923611  .00433500  00000+0  16164-1 0   924
2 56880  43.0003 311.8998 0001855 265.5160  99.9797 15.26407247    11
STARLINK-5853           
1 56881C 23083F   26092.21923611  .00522230  00000+0  20515-1 0   929
2 56881  42.9991 312.3446 0001645 261.6021 274.8853 15.24636561    18
STARLINK-6175           
1 56882C 23083G   26092.20395833  .00459040  00000+0  17130-1 0   925
2 56882  43.0002 311.9924 0001816 262.7573  15.2144 15.26369737    14
STARLINK-6171           
1 56883C 23083H   26092.23312500 -.00010683  00000+0 -39686-3 0   929
2 56883  43.0003 311.7953 0001790 267.9883 183.8468 15.26750010    17
STARLINK-5515           
1 56884C 23083J   26092.24770833  .00483360  00000+0  18247-1 0   920
2 56884  43.0002 311.6242 0001787 259.8511 308.9051 15.25976284    11
STARLINK-5095           
1 56885C 23083K   26092.22826389 -.00012579  00000+0 -46777-3 0   920
2 56885  43.0006 311.7405 0001760 259.7732 199.1911 15.26718794    19
STARLINK-5496           
1 56886C 23083L   26092.26923611  .00460000  00000+0  17207-1 0   929
2 56886  42.9993 311.3485 0001654 259.7417 132.4211 15.26290343    17
STARLINK-6180           
1 56887C 23083M   26092.23243056 -.00069008  00000+0 -40363-2 0   920
2 56887  42.9999 312.5715 0001457 267.9522 212.4961 15.11132413    10
STARLINK-6181           
1 56888C 23083N   26092.27479167 -.00023787  00000+0 -13926-2 0   928
2 56888  42.9995 312.2145 0001295 268.8505 132.4150 15.11077401    18
STARLINK-6169           
1 56889C 23083P   26092.17756944  .00564190  00000+0  21610-1 0   923
2 56889  43.0003 312.1348 0001629 278.3988 215.3007 15.25456092    11
STARLINK-5528           
1 56890C 23083Q   26092.21784722 -.00003848  00000+0 -22530-3 0   929
2 56890  42.9996 312.5353 0001392 270.5891 178.1893 15.11064884    14
STARLINK-6213           
1 56891C 23083R   26092.24701389  .00476220  00000+0  18093-1 0   924
2 56891  42.9995 311.5466 0001761 261.8792 336.5729 15.25767394    10
STARLINK-6219           
1 56892C 23083S   26092.19423611 -.00035051  00000+0 -20508-2 0   928
2 56892  43.0000 312.7624 0001567 269.8278   7.5463 15.11104316    14
STARLINK-6216           
1 56893C 23083T   26092.22687500 -.00016727  00000+0 -63742-3 0   929
2 56893  43.0002 311.7697 0001549 261.9418 178.9157 15.25912867    11
STARLINK-6144           
1 56894C 23083U   26092.18590278 -.00026572  00000+0 -15547-2 0   928
2 56894  42.9997 312.6962 0001279 268.6803  11.4091 15.11101213    18
STARLINK-6208           
1 56895C 23083V   26092.16020833  .00004751  00000+0  27800-3 0   921
2 56895  43.0001 313.0311 0001502 272.4195 146.0299 15.11083226    14
STARLINK-6202           
1 56896C 23083W   26092.20465278 -.00006058  00000+0 -35461-3 0   929
2 56896  42.9998 312.6937 0001297 273.8819  64.4602 15.11070285    18
STARLINK-6200           
1 56897C 23083X   26092.21229167 -.00002457  00000+0 -14382-3 0   924
2 56897  42.9996 312.5413 0001339 276.2850 150.8139 15.11072288    14
STARLINK-6205           
1 56898C 23083Y   26092.25951389 -.00025444  00000+0 -94510-3 0   929
2 56898  43.0000 308.6680 0001419 276.1399 135.5893 15.26763140    18
STARLINK-6203           
1 56899C 23083Z   26092.18173611  .00005951  00000+0  22105-3 0   926
2 56899  42.9996 308.6772 0001326 273.6612 251.6198 15.26748985    18
STARLINK-6207           
1 56900C 23083AA  26092.19423611 -.00021783  00000+0 -80957-3 0   920
2 56900  42.9997 298.0191 0001057 280.9539  18.8090 15.26743016    13
STARLINK-6185           
1 56901C 23083AB  26092.19770833 -.00035724  00000+0 -13268-2 0   922
2 56901  43.0003 308.9416 0001185 278.3110 184.4472 15.26771213    17
STARLINK-6195           
1 56902C 23083AC  26092.23590278  .00019201  00000+0  71347-3 0   924
2 56902  42.9999 298.0130 0001071 270.5867 161.1819 15.26729885    14
STARLINK-6192           
1 56903C 23083AD  26092.22062500  .00765960  00000+0  27978-1 0   925
2 56903  43.0001 308.6809 0001446 273.8612   9.2976 15.26922229    15
STARLINK-6193           
1 56904C 23083AE  26092.22409722 -.00083710  00000+0 -31118-2 0   927
2 56904  42.9997 297.7613 0001536 264.6028 233.9984 15.26765207    14
STARLINK-6183           
1 56905C 23083AF  26092.26715278 -.00062195  00000+0 -23105-2 0   929
2 56905  43.0013 297.0965 0001845 265.6769 292.9551 15.26775571    15
STARLINK-6098           
1 56906C 23083AG  26092.25673611 -.00061174  00000+0 -22157-2 0   925
2 56906  42.9999 297.3165 0001744 272.4614 159.4045 15.27609326    15
STARLINK-6110           
1 56907C 23083AH  26092.16020833 -.00007870  00000+0 -29240-3 0   922
2 56907  43.0010 297.7145 0001908 268.7143  54.0605 15.26743597    11
STARLINK-6186           
1 56908C 23083AJ  26092.20395833 -.00047540  00000+0 -17658-2 0   920
2 56908  42.9991 297.6867 0001448 268.5007 201.1648 15.26774894    10
STARLINK-5999           
1 56909C 23083AK  26092.26645833 -.00070719  00000+0 -26273-2 0   922
2 56909  43.0005 297.8280 0001648 262.4889 342.1885 15.26778414    14
STARLINK-6179           
1 56910C 23083AL  26092.23451389 -.00044948  00000+0 -16279-2 0   922
2 56910  42.9999 297.7185 0001553 267.6889 281.5517 15.27602614    18
STARLINK-6116           
1 56911C 23083AM  26092.26020833 -.00028397  00000+0 -10551-2 0   929
2 56911  43.0007 297.2498 0001904 271.8513 198.5878 15.26754647    14
STARLINK-5805           
1 56912C 23083AN  26092.24215278 -.00035741  00000+0 -13280-2 0   920
2 56912  42.9991 297.5291 0001663 273.5347  20.2743 15.26758450    13
STARLINK-5950           
1 56913C 23083AP  26092.27965278 -.00042846  00000+0 -15917-2 0   929
2 56913  43.0010 297.0931 0001684 265.3259 331.3822 15.26766517    15
STARLINK-5961           
1 56914C 23083AQ  26092.18381944 -.00045704  00000+0 -16549-2 0   920
2 56914  43.0009 297.6022 0002055 269.6684 170.2582 15.27610429    17
STARLINK-5965           
1 56915C 23083AR  26092.24770833 -.00029009  00000+0 -10776-2 0   923
2 56915  43.0004 297.3290 0001872 272.5495 124.4302 15.26761255    10
STARLINK-5973           
1 56916C 23083AS  26092.21576389 -.00027087  00000+0 -10061-2 0   922
2 56916  43.0005 297.4595 0001946 271.3532 328.5675 15.26764292    16
STARLINK-5971           
1 56917C 23083AT  26092.25951389 -.00064837  00000+0 -24086-2 0   920
2 56917  42.9994 297.5137 0001490 266.2786  87.8211 15.26778280    16
STARLINK-5951           
1 56918C 23083AU  26092.24701389 -.00027784  00000+0 -10329-2 0   928
2 56918  43.0010 297.2087 0001549 264.3992 177.9692 15.26734015    14
STARLINK-5966           
1 56919C 23083AV  26092.16645833 -.00001658  00000+0 -61566-4 0   924
2 56919  43.0002 297.4153 0001571 263.0510 200.4649 15.26751550    16
STARLINK-5960           
1 56920C 23083AW  26092.21368056 -.00022392  00000+0 -83183-3 0   927
2 56920  42.9995 297.5940 0001548 270.5543 265.1224 15.26756991    16
STARLINK-5958           
1 56921C 23083AX  26092.20048611 -.00029246  00000+0 -10865-2 0   920
2 56921  43.0004 297.5549 0001914 267.9162 243.7126 15.26760018    17
STARLINK-5937           
1 56922C 23083AY  26092.21854167 -.00028421  00000+0 -10559-2 0   927
2 56922  43.0000 297.9795 0001578 266.8337 120.0432 15.26758142    11
STARLINK-5952           
1 56923C 23083AZ  26092.24909722 -.00010735  00000+0 -39860-3 0   925
2 56923  43.0010 297.1609 0002033 273.4036 195.3205 15.26765857    10
